[{"OBJECT_NAME":"AL MUNTHER","OBJECT_ID":"2025-052AG","EPOCH":"2026-03-09T15:29:23.207136","MEAN_MOTION":15.28381521,"ECCENTRICITY":0.0008027,"INCLINATION":97.4001,"RA_OF_ASC_NODE":323.9152,"ARG_OF_PERICENTER":130.7043,"MEAN_ANOMALY":229.4895,"EPHEMERIS_TYPE":0,"CLASSIFICATION_TYPE":"U","NORAD_CAT_ID":63240,"ELEMENT_SET_NO":999,"REV_AT_EPOCH":5479,"BSTAR":0.00065015,"MEAN_MOTION_DOT":0.00017933,"MEAN_MOTION_DDOT":0},{"OBJECT_NAME":"STARLINK-35512","OBJECT_ID":"2025-253M","EPOCH":"2026-03-09T10:29:14.706528","MEAN_MOTION":15.27582162,"ECCENTRICITY":3.671e-5,"INCLINATION":42.9985,"RA_OF_ASC_NODE":214.1234,"ARG_OF_PERICENTER":188.9051,"MEAN_ANOMALY":171.1794,"EPHEMERIS_TYPE":0,"CLASSIFICATION_TYPE":"U","NORAD_CAT_ID":66330,"ELEMENT_SET_NO":999,"REV_AT_EPOCH":2020,"BSTAR":0.0010683445,"MEAN_MOTION_DOT":0.00029255,"MEAN_MOTION_DDOT":0}]
